OBJECT_NAME,OBJECT_ID,EPOCH,MEAN_MOTION,ECCENTRICITY,INCLINATION,RA_OF_ASC_NODE,ARG_OF_PERICENTER,MEAN_ANOMALY,EPHEMERIS_TYPE,CLASSIFICATION_TYPE,NORAD_CAT_ID,ELEMENT_SET_NO,REV_AT_EPOCH,BSTAR,MEAN_MOTION_DOT,MEAN_MOTION_DDOT
STARLINK-4586,2022-104BA,2026-07-11T22:17:50.911872,15.08832572,.00015755,53.1618,25.9763,74.3932,285.7233,0,U,53636,999,21498,.6556925E-5,-.184E-5,0
STARLINK-4396,2022-104BB,2026-07-11T18:20:49.888320,15.08833107,.00012655,53.1611,27.0707,87.2729,272.8408,0,U,53637,999,21495,.5474858E-5,-.201E-5,0
STARLINK-4594,2022-104BC,2026-07-11T21:51:19.390176,15.08835842,.00012942,53.1605,25.8638,93.1436,266.9704,0,U,53638,999,21498,-.53623946E-4,-.1141E-4,0
STARLINK-4422,2022-104BD,2026-07-11T22:00:03.000096,15.63680901,.0001006,53.2176,10.3527,74.8886,80.6400,0,U,53639,999,585,.55521688E-2,.564886E-2,0
STARLINK-4597,2022-104BE,2026-07-11T22:07:14.106720,15.08830409,.00013069,53.1608,25.9302,93.8944,266.2197,0,U,53640,999,21498,.33636704E-4,.247E-5,0
STARLINK-4588,2022-104BF,2026-07-11T22:00:03.000096,15.18160305,.00000327,53.1586,25.8928,290.1409,73.4689,0,U,53641,999,574,.25766711E-2,.53354E-3,0
STARLINK-4622,2022-105A,2026-07-11T14:34:39.073152,15.05663265,.00018657,97.2854,70.3722,88.2331,271.9110,0,U,53648,999,21188,.11782582E-3,.1645E-4,0
STARLINK-4386,2022-105B,2026-07-11T22:00:03.000096,15.59632720,.00015712,97.6017,78.1643,79.4444,187.6100,0,U,53649,999,579,.20053555E-2,.1626E-2,0
STARLINK-4380,2022-105C,2026-07-11T14:38:37.691808,15.05656605,.00021935,97.2848,70.3603,87.0964,273.0515,0,U,53650,999,21187,.29815082E-4,.374E-5,0
STARLINK-4388,2022-105D,2026-07-11T22:00:03.000096,15.73442376,.00012625,97.6017,79.2312,102.6484,80.5660,0,U,53651,999,587,.28149652E-2,.408824E-2,0
STARLINK-4374,2022-105E,2026-07-11T15:02:34.180800,15.05663398,.00017696,97.2833,70.3293,89.3471,270.7960,0,U,53652,999,21187,.3857578E-4,.501E-5,0
STARLINK-4390,2022-105F,2026-07-11T15:32:47.570784,15.53375073,.00032875,97.6008,77.0308,143.3834,216.7644,0,U,53653,999,21218,.66575094E-3,.42142E-3,0
STARLINK-4420,2022-105G,2026-07-11T14:48:33.616800,15.05660666,.00016867,97.2843,71.3962,93.0904,267.0517,0,U,53654,999,21194,.11403394E-3,.159E-4,0
STARLINK-4470,2022-105H,2026-07-11T22:00:03.000096,15.54568943,.00015484,97.6033,79.1218,86.4472,236.0687,0,U,53655,999,588,-.11916834E-1,-.718527E-2,0
STARLINK-4466,2022-105J,2026-07-11T16:02:22.188768,15.05652042,.00022115,97.2863,70.4081,85.3019,274.8461,0,U,53656,999,21188,.9418718E-5,.8E-6,0
STARLINK-4452,2022-105L,2026-07-11T15:24:26.625312,15.05652301,.00025045,97.2833,71.5075,81.5460,278.6051,0,U,53658,999,21195,-.17073073E-4,-.303E-5,0
STARLINK-4473,2022-105N,2026-07-11T15:50:24.382752,15.05657511,.00025975,97.2869,70.4075,87.9258,272.2267,0,U,53660,999,21188,-.3260396E-4,-.527E-5,0
STARLINK-4472,2022-105P,2026-07-11T21:21:21.648960,15.05657014,.00020212,97.2835,70.5576,84.4573,275.6886,0,U,53661,999,21191,.17135926E-4,.191E-5,0
STARLINK-4357,2022-105Q,2026-07-11T22:00:03.000096,15.52363857,.00015377,97.6025,78.5644,70.3577,149.6155,0,U,53662,999,566,-.53313152E-2,-.312162E-2,0
STARLINK-4457,2022-105R,2026-07-11T15:20:27.477888,15.05651586,.00022587,97.2835,71.5039,84.9330,275.2156,0,U,53663,999,21195,-.31881168E-4,-.516E-5,0
STARLINK-4471,2022-105S,2026-07-11T14:28:36.466176,15.05653105,.00021499,97.2827,71.3822,71.0891,289.0570,0,U,53664,999,21194,.2002704E-4,.233E-5,0
STARLINK-4334,2022-105T,2026-07-11T20:19:06.568320,15.63667078,.00008039,97.6018,78.7371,99.9313,260.2036,0,U,53665,999,21231,.1439469E-2,.135809E-2,0
STARLINK-4406,2022-105V,2026-07-11T22:40:19.079328,15.35968859,.0002196,97.6004,77.3274,122.8841,237.2614,0,U,53667,999,21223,.72503006E-3,.2536E-3,0
STARLINK-4458,2022-105W,2026-07-11T22:00:03.000096,15.56084796,.00016698,97.6044,79.1274,76.4484,79.8260,0,U,53668,999,582,-.4499407E-2,-.302063E-2,0
STARLINK-4464,2022-105X,2026-07-11T15:00:46.398528,15.59051986,.00010436,97.6000,77.0045,12.5028,347.6253,0,U,53669,999,21218,.16509911E-2,.130423E-2,0
STARLINK-4459,2022-105Y,2026-07-11T15:04:30.639360,15.05641961,.00026856,97.2846,71.4842,114.1222,246.0286,0,U,53670,999,21195,-.59349681E-4,-.912E-5,0
STARLINK-4440,2022-105Z,2026-07-11T14:46:35.159808,15.05586135,.00024788,97.2818,70.2876,88.5033,271.6479,0,U,53671,999,21187,.85378569E-3,.12263E-3,0
STARLINK-4428,2022-105AA,2026-07-11T15:38:26.712384,15.05659568,.00024501,97.2849,70.3770,85.2608,274.8899,0,U,53672,999,21188,.59971049E-4,.809E-5,0
STARLINK-4456,2022-105AB,2026-07-11T22:00:03.000096,15.56876193,.00011858,97.6027,76.3079,103.7387,186.0451,0,U,53673,999,581,.89826126E-2,.703896E-2,0
STARLINK-4620,2022-105AC,2026-07-11T15:46:24.731616,15.05654070,.00024204,97.2855,70.3659,85.2353,274.9151,0,U,53674,999,21188,-.991371E-5,-.199E-5,0
