STARLINK-4586           
1 53636U 22104BA  26192.92906148 -.00000184  00000+0  65569-5 0  9990
2 53636  53.1618  25.9763 0001575  74.3932 285.7233 15.08832572214982
STARLINK-4396           
1 53637U 22104BB  26192.76446630 -.00000201  00000+0  54749-5 0  9996
2 53637  53.1611  27.0707 0001265  87.2729 272.8408 15.08833107214953
STARLINK-4594           
1 53638U 22104BC  26192.91064109 -.00001141  00000+0 -53624-4 0  9996
2 53638  53.1605  25.8638 0001294  93.1436 266.9704 15.08835842214983
STARLINK-4422           
1 53639U 22104BD  26192.91670139  .00564886  00000+0  55522-2 0  9998
2 53639  53.2176  10.3527 0001006  74.8886  80.6400 15.63680901  5853
STARLINK-4597           
1 53640U 22104BE  26192.92169105  .00000247  00000+0  33637-4 0  9998
2 53640  53.1608  25.9302 0001306  93.8944 266.2197 15.08830409214986
STARLINK-4588           
1 53641U 22104BF  26192.91670139  .00053354  00000+0  25767-2 0  9992
2 53641  53.1586  25.8928 0000032 290.1409  73.4689 15.18160305  5746
STARLINK-4622           
1 53648U 22105A   26192.60739668  .00001645  00000+0  11783-3 0  9999
2 53648  97.2854  70.3722 0001865  88.2331 271.9110 15.05663265211889
STARLINK-4386           
1 53649U 22105B   26192.91670139  .00162600  00000+0  20054-2 0  9990
2 53649  97.6017  78.1643 0001571  79.4444 187.6100 15.59632720  5798
STARLINK-4380           
1 53650U 22105C   26192.61015847  .00000374  00000+0  29815-4 0  9993
2 53650  97.2848  70.3603 0002193  87.0964 273.0515 15.05656605211878
STARLINK-4388           
1 53651U 22105D   26192.91670139  .00408824  00000+0  28150-2 0  9999
2 53651  97.6017  79.2312 0001262 102.6484  80.5660 15.73442376  5879
STARLINK-4374           
1 53652U 22105E   26192.62678450  .00000501  00000+0  38576-4 0  9997
2 53652  97.2833  70.3293 0001769  89.3471 270.7960 15.05663398211870
STARLINK-4390           
1 53653U 22105F   26192.64777281  .00042142  00000+0  66575-3 0  9998
2 53653  97.6008  77.0308 0003287 143.3834 216.7644 15.53375073212188
STARLINK-4420           
1 53654U 22105G   26192.61705575  .00001590  00000+0  11403-3 0  9995
2 53654  97.2843  71.3962 0001686  93.0904 267.0517 15.05660666211948
STARLINK-4470           
1 53655U 22105H   26192.91670139 -.00718527  00000+0 -11917-1 0  9991
2 53655  97.6033  79.1218 0001548  86.4472 236.0687 15.54568943  5884
STARLINK-4466           
1 53656U 22105J   26192.66831237  .00000080  00000+0  94187-5 0  9992
2 53656  97.2863  70.4081 0002211  85.3019 274.8461 15.05652042211886
STARLINK-4452           
1 53658U 22105L   26192.64197483 -.00000303  00000+0 -17073-4 0  9998
2 53658  97.2833  71.5075 0002504  81.5460 278.6051 15.05652301211956
STARLINK-4473           
1 53660U 22105N   26192.66000443 -.00000527  00000+0 -32604-4 0  9997
2 53660  97.2869  70.4075 0002597  87.9258 272.2267 15.05657511211882
STARLINK-4472           
1 53661U 22105P   26192.88983390  .00000191  00000+0  17136-4 0  9991
2 53661  97.2835  70.5576 0002021  84.4573 275.6886 15.05657014211913
STARLINK-4357           
1 53662U 22105Q   26192.91670139 -.00312162  00000+0 -53313-2 0  9991
2 53662  97.6025  78.5644 0001537  70.3577 149.6155 15.52363857  5665
STARLINK-4457           
1 53663U 22105R   26192.63920692 -.00000516  00000+0 -31881-4 0  9998
2 53663  97.2835  71.5039 0002258  84.9330 275.2156 15.05651586211956
STARLINK-4471           
1 53664U 22105S   26192.60319984  .00000233  00000+0  20027-4 0  9996
2 53664  97.2827  71.3822 0002149  71.0891 289.0570 15.05653105211945
STARLINK-4334           
1 53665U 22105T   26192.84660380  .00135809  00000+0  14395-2 0  9999
2 53665  97.6018  78.7371 0000803  99.9313 260.2036 15.63667078212313
STARLINK-4406           
1 53667U 22105V   26192.94466527  .00025360  00000+0  72503-3 0  9995
2 53667  97.6004  77.3274 0002196 122.8841 237.2614 15.35968859212233
STARLINK-4458           
1 53668U 22105W   26192.91670139 -.00302063  00000+0 -44994-2 0  9991
2 53668  97.6044  79.1274 0001669  76.4484  79.8260 15.56084796  5823
STARLINK-4464           
1 53669U 22105X   26192.62553702  .00130423  00000+0  16510-2 0  9996
2 53669  97.6000  77.0045 0001043  12.5028 347.6253 15.59051986212185
STARLINK-4459           
1 53670U 22105Y   26192.62813240 -.00000912  00000+0 -59350-4 0  9996
2 53670  97.2846  71.4842 0002685 114.1222 246.0286 15.05641961211953
STARLINK-4440           
1 53671U 22105Z   26192.61568472  .00012263  00000+0  85379-3 0  9999
2 53671  97.2818  70.2876 0002478  88.5033 271.6479 15.05586135211871
STARLINK-4428           
1 53672U 22105AA  26192.65169806  .00000809  00000+0  59971-4 0  9995
2 53672  97.2849  70.3770 0002450  85.2608 274.8899 15.05659568211885
STARLINK-4456           
1 53673U 22105AB  26192.91670139  .00703896  00000+0  89826-2 0  9997
2 53673  97.6027  76.3079 0001185 103.7387 186.0451 15.56876193  5813
STARLINK-4620           
1 53674U 22105AC  26192.65723069 -.00000199  00000+0 -99137-5 0  9997
2 53674  97.2855  70.3659 0002420  85.2353 274.9151 15.05654070211889
